NORAD_CAT_ID,OBJECT_NAME,OBJECT_TYPE,EPOCH,MEAN_MOTION,ECCENTRICITY,INCLINATION,RA_OF_ASC_NODE,ARG_OF_PERICENTER,MEAN_ANOMALY,BSTAR,MEAN_MOTION_DOT,MEAN_MOTION_DDOT,TLE_LINE0,TLE_LINE1,TLE_LINE2,SEMIMAJOR_AXIS,PERIOD,APOGEE,PERIGEE,DECAYED
55658.0,STARLINK-5307,PAYLOAD,2024-02-03 19:35:52,14.98331648,0.0002512,70.0009,312.8613,254.315,105.7732,-9.8322e-06,-2.1e-06,0.0,0 STARLINK-5307,1 55658U 23021AG  24034.81657954 -.00000210  00000-0 -98322-5 0  9999,2 55658  70.0009 312.8613 0002512 254.3150 105.7732 14.98331648 53922,6950.188,96.107,573.799,570.307,0.0
55658.0,STARLINK-5307,PAYLOAD,2024-02-03 21:12:00,14.98331207,0.000252,70.0009,312.6932,254.2911,105.797,-1.4251e-05,-2.63e-06,0.0,0 STARLINK-5307,1 55658U 23021AG  24034.88333971 -.00000263  00000-0 -14251-4 0  9992,2 55658  70.0009 312.6932 0002520 254.2911 105.7970 14.98331207 54237,6950.189,96.107,573.806,570.303,0.0
55658.0,STARLINK-5307,PAYLOAD,2024-02-04 03:36:32,14.98331984,0.0002505,70.0008,312.0199,254.4311,105.6572,-5.1253e-06,-1.54e-06,0.0,0 STARLINK-5307,1 55658U 23021AG  24035.15037867 -.00000154  00000-0 -51253-5 0  9991,2 55658  70.0008 312.0199 0002505 254.4311 105.6572 14.98331984 54277,6950.187,96.107,573.793,570.311,0.0
55658.0,STARLINK-5307,PAYLOAD,2024-02-04 19:37:53,14.98330676,0.000249,70.0006,310.3362,257.4609,102.6272,2.5302e-05,2.09e-06,0.0,0 STARLINK-5307,1 55658U 23021AG  24035.81797806  .00000209  00000-0  25302-4 0  9994,2 55658  70.0006 310.3362 0002490 257.4609 102.6272 14.98330676 54073,6950.191,96.107,573.786,570.325,0.0
55658.0,STARLINK-5307,PAYLOAD,2024-02-04 22:50:09,14.9832993,0.0002514,70.0007,309.9994,257.308,102.7798,1.4585e-05,8.1e-07,0.0,0 STARLINK-5307,1 55658U 23021AG  24035.95149862  .00000081  00000-0  14585-4 0  9991,2 55658  70.0007 309.9994 0002514 257.3080 102.7798 14.98329930 54398,6950.193,96.107,573.805,570.311,0.0
55658.0,STARLINK-5307,PAYLOAD,2024-02-05 11:39:13,14.98333171,0.0002637,70.0003,308.6512,274.1564,85.9294,1.6902e-07,-9.1e-07,0.0,0 STARLINK-5307,1 55658U 23021AG  24036.48557658 -.00000091  00000-0  16902-6 0  9995,2 55658  70.0003 308.6512 0002637 274.1564  85.9294 14.98333171 54470,6950.183,96.107,573.881,570.215,0.0
55658.0,STARLINK-5307,PAYLOAD,2024-02-05 22:52:10,14.98328202,0.0002794,69.9998,307.4721,268.6228,91.4611,6.5705e-05,6.91e-06,0.0,0 STARLINK-5307,1 55658U 23021AG  24036.95289746  .00000691  00000-0  65705-4 0  9995,2 55658  69.9998 307.4721 0002794 268.6228  91.4611 14.98328202 54540,6950.198,96.107,574.005,570.122,0.0
55658.0,STARLINK-5307,PAYLOAD,2024-02-06 03:40:34,14.9832213,0.000261,70.0003,306.9677,268.9135,91.1725,0.00026193,3.033e-05,0.0,0 STARLINK-5307,1 55658U 23021AG  24037.15317675  .00003033  00000-0  26193-3 0  9991,2 55658  70.0003 306.9677 0002610 268.9135  91.1725 14.98322130 54278,6950.217,96.108,573.896,570.268,0.0
55658.0,STARLINK-5307,PAYLOAD,2024-02-06 22:54:11,14.98329824,0.0002709,70.0,304.9475,268.7183,91.3666,-1.6794e-05,-2.93e-06,0.0,0 STARLINK-5307,1 55658U 23021AG  24037.95429798 -.00000293  00000-0 -16794-4 0  9993,2 55658  70.0000 304.9475 0002709 268.7183  91.3666 14.98329824 54698,6950.193,96.107,573.941,570.176,0.0
55658.0,STARLINK-5307,PAYLOAD,2024-02-07 03:42:35,14.98334476,0.0002552,70.0005,304.4433,272.0942,87.9925,6.0162e-05,6.25e-06,0.0,0 STARLINK-5307,1 55658U 23021AG  24038.15457301  .00000625  00000-0  60162-4 0  9992,2 55658  70.0005 304.4433 0002552 272.0942  87.9925 14.98334476 54428,6950.179,96.107,573.818,570.27,0.0
55658.0,STARLINK-5307,PAYLOAD,2024-02-07 19:43:56,14.98304664,0.0002494,70.001,302.7629,257.5713,102.5167,0.000396,4.632e-05,0.0,0 STARLINK-5307,1 55658U 23021AG  24038.82218262  .00004632  00000-0  39600-3 0  9991,2 55658  70.0010 302.7629 0002494 257.5713 102.5167 14.98304664 54520,6950.271,96.109,573.87,570.403,0.0
55658.0,STARLINK-5307,PAYLOAD,2024-02-07 21:20:05,14.98258173,0.0002887,70.0009,302.5943,253.2057,106.8785,0.0011883,0.00014088,0.0,0 STARLINK-5307,1 55658U 23021AG  24038.88895400  .00014088  00000-0  11883-2 0  9990,2 55658  70.0009 302.5943 0002887 253.2057 106.8785 14.98258173 54835,6950.415,96.112,574.287,570.273,0.0
55658.0,STARLINK-5307,PAYLOAD,2024-02-08 02:08:28,14.98325205,0.0002465,70.0009,302.0907,252.1498,107.9392,-6.3349e-05,-8.49e-06,0.0,0 STARLINK-5307,1 55658U 23021AG  24039.08922147 -.00000849  00000-0 -63349-4 0  9990,2 55658  70.0009 302.0907 0002465 252.1498 107.9392 14.98325205 54566,6950.208,96.107,573.786,570.359,0.0
55658.0,STARLINK-5307,PAYLOAD,2024-02-08 10:09:09,14.98323878,0.0002461,70.0007,301.2487,255.5026,104.586,-4.8403e-05,-6.7e-06,0.0,0 STARLINK-5307,1 55658U 23021AG  24039.42302325 -.00000670  00000-0 -48403-4 0  9994,2 55658  70.0007 301.2487 0002461 255.5026 104.5860 14.98323878 54914,6950.212,96.107,573.787,570.366,0.0
55658.0,STARLINK-5307,PAYLOAD,2024-02-08 19:45:56,14.98332936,0.0002718,69.9998,300.2365,267.519,92.5658,1.4216e-05,7.7e-07,0.0,0 STARLINK-5307,1 55658U 23021AG  24039.82357605  .00000077  00000-0  14216-4 0  9993,2 55658  69.9998 300.2365 0002718 267.5190  92.5658 14.98332936 54673,6950.184,96.107,573.938,570.16,0.0
55658.0,STARLINK-5307,PAYLOAD,2024-02-08 21:22:05,14.98332853,0.0002722,69.9998,300.0682,267.6834,92.4013,1.3764e-05,7.1e-07,0.0,0 STARLINK-5307,1 55658U 23021AG  24039.89033600  .00000071  00000-0  13764-4 0  9997,2 55658  69.9998 300.0682 0002722 267.6834  92.4013 14.98332853 54980,6950.184,96.107,573.941,570.157,0.0
55658.0,STARLINK-5307,PAYLOAD,2024-02-09 03:46:36,14.98336606,0.0002673,70.0,299.395,268.0539,92.0313,5.8828e-05,6.09e-06,0.0,0 STARLINK-5307,1 55658U 23021AG  24040.15737184  .00000609  00000-0  58828-4 0  9993,2 55658  70.0000 299.3950 0002673 268.0539  92.0313 14.98336606 55022,6950.172,96.107,573.895,570.18,0.0
55658.0,STARLINK-5307,PAYLOAD,2024-02-09 19:47:58,14.98325401,0.0002723,69.9998,297.7114,269.3262,90.7585,3.5449e-05,3.3e-06,0.0,0 STARLINK-5307,1 55658U 23021AG  24040.82497949  .00000330  00000-0  35449-4 0  9994,2 55658  69.9998 297.7114 0002723 269.3262  90.7585 14.98325401 54826,6950.207,96.107,573.965,570.18,0.0
55658.0,STARLINK-5307,PAYLOAD,2024-02-10 03:48:38,14.98330525,0.00027,69.9998,296.8699,268.4484,91.6366,8.5017e-05,9.22e-06,0.0,0 STARLINK-5307,1 55658U 23021AG  24041.15877530  .00000922  00000-0  85017-4 0  9992,2 55658  69.9998 296.8699 0002700 268.4484  91.6366 14.98330525 54870,6950.191,96.107,573.933,570.18,0.0
55658.0,STARLINK-5307,PAYLOAD,2024-02-10 19:49:56,14.98363569,0.0002778,70.0002,295.1868,255.3766,104.7085,0.00033484,3.908e-05,0.0,0 STARLINK-5307,1 55658U 23021AG  24041.82634599  .00003908  00000-0  33484-3 0  9999,2 55658  70.0002 295.1868 0002778 255.3766 104.7085 14.98363569 54971,6950.089,96.105,573.885,570.023,0.0
55658.0,STARLINK-5307,PAYLOAD,2024-02-10 21:26:04,14.98363826,0.0002786,70.0002,295.0185,255.0906,104.9945,0.0003326,3.881e-05,0.0,0 STARLINK-5307,1 55658U 23021AG  24041.89310459  .00003881  00000-0  33260-3 0  9994,2 55658  70.0002 295.0185 0002786 255.0906 104.9945 14.98363826 55282,6950.088,96.105,573.89,570.017,0.0
55658.0,STARLINK-5307,PAYLOAD,2024-02-11 02:14:27,14.98367964,0.0002847,69.9998,294.5124,262.619,97.4646,0.00035671,4.17e-05,0.0,0 STARLINK-5307,1 55658U 23021AG  24042.09337730  .00004170  00000-0  35671-3 0  9998,2 55658  69.9998 294.5124 0002847 262.6190  97.4646 14.98367964 55312,6950.075,96.105,573.919,569.962,0.0
55658.0,STARLINK-5307,PAYLOAD,2024-02-11 19:51:58,14.98332502,0.0003003,69.9995,292.6627,259.0508,101.0313,-2.6161e-05,-4.05e-06,0.0,0 STARLINK-5307,1 55658U 23021AG  24042.82776351 -.00000405  00000-0 -26161-4 0  9999,2 55658  69.9995 292.6627 0003003 259.0508 101.0313 14.98332502 55126,6950.185,96.107,574.137,569.963,0.0
55658.0,STARLINK-5307,PAYLOAD,2024-02-11 21:28:06,14.98330205,0.0002953,70.0003,292.4959,257.162,102.9209,-3.7139e-05,-5.36e-06,0.0,0 STARLINK-5307,1 55658U 23021AG  24042.89452489 -.00000536  00000-0 -37139-4 0  9991,2 55658  70.0003 292.4959 0002953 257.1620 102.9209 14.98330205 55438,6950.192,96.107,574.11,570.005,0.0
55658.0,STARLINK-5307,PAYLOAD,2024-02-12 02:16:31,14.98326064,0.0003182,69.999,291.9885,263.3862,96.6935,-9.3751e-05,-1.211e-05,0.0,0 STARLINK-5307,1 55658U 23021AG  24043.09480914 -.00001211  00000-0 -93751-4 0  9991,2 55658  69.9990 291.9885 0003182 263.3862  96.6935 14.98326064 55167,6950.205,96.107,574.282,569.859,0.0
55658.0,STARLINK-5307,PAYLOAD,2024-02-12 21:30:08,14.98333739,0.0003069,69.9997,289.9694,261.154,98.9271,-0.00039999,-4.863e-05,0.0,0 STARLINK-5307,1 55658U 23021AG  24043.89593595 -.00004863  00000-0 -39999-3 0  9998,2 55658  69.9997 289.9694 0003069 261.1540  98.9271 14.98333739 55583,6950.181,96.107,574.179,569.913,0.0
55658.0,STARLINK-5307,PAYLOAD,2024-02-13 02:18:32,14.98338775,0.0003122,69.9994,289.4635,268.0025,92.0776,-0.00036082,-4.397e-05,0.0,0 STARLINK-5307,1 55658U 23021AG  24044.09621120 -.00004397  00000-0 -36082-3 0  9999,2 55658  69.9994 289.4635 0003122 268.0025  92.0776 14.98338775 55315,6950.166,96.106,574.201,569.861,0.0
55658.0,STARLINK-5307,PAYLOAD,2024-02-13 23:08:17,14.98326095,0.0003043,69.9991,287.2752,267.1482,92.9329,0.00017354,1.978e-05,0.0,0 STARLINK-5307,1 55658U 23021AG  24044.96408658  .00001978  00000-0  17354-3 0  9995,2 55658  69.9991 287.2752 0003043 267.1482  92.9329 14.98326095 55749,6950.205,96.107,574.185,569.955,0.0
55658.0,STARLINK-5307,PAYLOAD,2024-02-14 02:20:32,14.98329419,0.0002952,69.999,286.9375,268.2871,91.795,0.00021245,2.443e-05,0.0,0 STARLINK-5307,1 55658U 23021AG  24045.09760388  .00002443  00000-0  21245-3 0  9993,2 55658  69.9990 286.9375 0002952 268.2871  91.7950 14.98329419 55466,6950.195,96.107,574.111,570.008,0.0
55658.0,STARLINK-5307,PAYLOAD,2024-02-14 08:45:05,14.98328736,0.0002954,69.9991,286.2634,267.2354,92.8467,5.5561e-05,5.7e-06,0.0,0 STARLINK-5307,1 55658U 23021AG  24045.36464860  .00000570  00000-0  55561-4 0  9997,2 55658  69.9991 286.2634 0002954 267.2354  92.8467 14.98328736 55809,6950.197,96.107,574.115,570.009,0.0
